HERMES-2                
1 63243U 25052AK  26068.92847372  .00009456  00000+0  34839-3 0  9999
2 63243  97.4004 324.4926 0006340  99.4160 260.7796 15.28021069 54859
STARLINK-33975          
1 63802U 25091AC  26068.80684694  .00025298  00000+0  92444-3 0  9994
2 63802  43.0059  51.5543 0004424 308.3925  51.6529 15.27618476 49030
